[{"OBJECT_NAME":"STARLINK-4666","OBJECT_ID":"2022-111S","EPOCH":"2025-11-16T16:59:06.105984","MEAN_MOTION":15.08851774,"ECCENTRICITY":0.0001183,"INCLINATION":53.2189,"RA_OF_ASC_NODE":61.0372,"ARG_OF_PERICENTER":98.2407,"MEAN_ANOMALY":261.8719,"EPHEMERIS_TYPE":0,"CLASSIFICATION_TYPE":"U","NORAD_CAT_ID":53789,"ELEMENT_SET_NO":999,"REV_AT_EPOCH":17663,"BSTAR":8.1348e-5,"MEAN_MOTION_DOT":1.007e-5,"MEAN_MOTION_DDOT":0},{"OBJECT_NAME":"STARLINK-4734","OBJECT_ID":"2022-111T","EPOCH":"2025-11-16T10:58:47.411616","MEAN_MOTION":15.08847958,"ECCENTRICITY":0.00011025,"INCLINATION":53.219,"RA_OF_ASC_NODE":62.3215,"ARG_OF_PERICENTER":68.7521,"MEAN_ANOMALY":291.3589,"EPHEMERIS_TYPE":0,"CLASSIFICATION_TYPE":"U","NORAD_CAT_ID":53790,"ELEMENT_SET_NO":999,"REV_AT_EPOCH":17660,"BSTAR":0.00011983967,"MEAN_MOTION_DOT":1.62e-5,"MEAN_MOTION_DDOT":0},{"OBJECT_NAME":"STARLINK-4739","OBJECT_ID":"2022-111V","EPOCH":"2025-11-16T16:49:59.932704","MEAN_MOTION":15.08843965,"ECCENTRICITY":0.0001329,"INCLINATION":53.219,"RA_OF_ASC_NODE":61.6903,"ARG_OF_PERICENTER":96.5168,"MEAN_ANOMALY":263.5975,"EPHEMERIS_TYPE":0,"CLASSIFICATION_TYPE":"U","NORAD_CAT_ID":53792,"ELEMENT_SET_NO":999,"REV_AT_EPOCH":17662,"BSTAR":6.3497e-5,"MEAN_MOTION_DOT":7.23e-6,"MEAN_MOTION_DDOT":0},{"OBJECT_NAME":"STARLINK-4728","OBJECT_ID":"2022-111W","EPOCH":"2025-11-16T10:48:10.618560","MEAN_MOTION":15.08861349,"ECCENTRICITY":0.00021637,"INCLINATION":53.2217,"RA_OF_ASC_NODE":62.2735,"ARG_OF_PERICENTER":98.3658,"MEAN_ANOMALY":261.758,"EPHEMERIS_TYPE":0,"CLASSIFICATION_TYPE":"U","NORAD_CAT_ID":53793,"ELEMENT_SET_NO":999,"REV_AT_EPOCH":17659,"BSTAR":0.00027213481,"MEAN_MOTION_DOT":4.048e-5,"MEAN_MOTION_DDOT":0},{"OBJECT_NAME":"STARLINK-4730","OBJECT_ID":"2022-111X","EPOCH":"2025-11-16T17:16:24.080160","MEAN_MOTION":15.08841221,"ECCENTRICITY":0.000105,"INCLINATION":53.2189,"RA_OF_ASC_NODE":61.1084,"ARG_OF_PERICENTER":96.7594,"MEAN_ANOMALY":263.3517,"EPHEMERIS_TYPE":0,"CLASSIFICATION_TYPE":"U","NORAD_CAT_ID":53794,"ELEMENT_SET_NO":999,"REV_AT_EPOCH":17663,"BSTAR":-2.6528e-6,"MEAN_MOTION_DOT":-3.3e-6,"MEAN_MOTION_DDOT":0},{"OBJECT_NAME":"STARLINK-4742","OBJECT_ID":"2022-111Y","EPOCH":"2025-11-16T12:07:38.855712","MEAN_MOTION":15.08815347,"ECCENTRICITY":0.00020045,"INCLINATION":53.218,"RA_OF_ASC_NODE":61.9066,"ARG_OF_PERICENTER":104.8086,"MEAN_ANOMALY":255.3128,"EPHEMERIS_TYPE":0,"CLASSIFICATION_TYPE":"U","NORAD_CAT_ID":53795,"ELEMENT_SET_NO":999,"REV_AT_EPOCH":17660,"BSTAR":0.00020210393,"MEAN_MOTION_DOT":2.928e-5,"MEAN_MOTION_DDOT":0},{"OBJECT_NAME":"STARLINK-4723","OBJECT_ID":"2022-111AA","EPOCH":"2025-11-16T16:37:52.550976","MEAN_MOTION":15.08857954,"ECCENTRICITY":0.0001227,"INCLINATION":53.2167,"RA_OF_ASC_NODE":60.9451,"ARG_OF_PERICENTER":96.8229,"MEAN_ANOMALY":263.2903,"EPHEMERIS_TYPE":0,"CLASSIFICATION_TYPE":"U","NORAD_CAT_ID":53797,"ELEMENT_SET_NO":999,"REV_AT_EPOCH":17662,"BSTAR":0.00032568,"MEAN_MOTION_DOT":4.902e-5,"MEAN_MOTION_DDOT":0},{"OBJECT_NAME":"STARLINK-4712","OBJECT_ID":"2022-111AB","EPOCH":"2025-11-16T11:57:01.120032","MEAN_MOTION":15.0885412,"ECCENTRICITY":0.00012782,"INCLINATION":53.2182,"RA_OF_ASC_NODE":61.8586,"ARG_OF_PERICENTER":67.2047,"MEAN_ANOMALY":292.9081,"EPHEMERIS_TYPE":0,"CLASSIFICATION_TYPE":"U","NORAD_CAT_ID":53798,"ELEMENT_SET_NO":999,"REV_AT_EPOCH":17659,"BSTAR":0.00024766453,"MEAN_MOTION_DOT":3.657e-5,"MEAN_MOTION_DDOT":0},{"OBJECT_NAME":"STARLINK-4710","OBJECT_ID":"2022-111AC","EPOCH":"2025-11-16T16:08:52.479168","MEAN_MOTION":15.08865446,"ECCENTRICITY":9.91e-5,"INCLINATION":53.2163,"RA_OF_ASC_NODE":51.5395,"ARG_OF_PERICENTER":94.638,"MEAN_ANOMALY":265.4725,"EPHEMERIS_TYPE":0,"CLASSIFICATION_TYPE":"U","NORAD_CAT_ID":53799,"ELEMENT_SET_NO":999,"REV_AT_EPOCH":17675,"BSTAR":0.0004265,"MEAN_MOTION_DOT":6.511e-5,"MEAN_MOTION_DDOT":0},{"OBJECT_NAME":"STARLINK-4720","OBJECT_ID":"2022-111AD","EPOCH":"2025-11-16T15:51:34.719264","MEAN_MOTION":15.0885259,"ECCENTRICITY":0.0001587,"INCLINATION":53.2179,"RA_OF_ASC_NODE":51.469,"ARG_OF_PERICENTER":109.608,"MEAN_ANOMALY":250.5083,"EPHEMERIS_TYPE":0,"CLASSIFICATION_TYPE":"U","NORAD_CAT_ID":53800,"ELEMENT_SET_NO":999,"REV_AT_EPOCH":17675,"BSTAR":0.00015035,"MEAN_MOTION_DOT":2.106e-5,"MEAN_MOTION_DDOT":0},{"OBJECT_NAME":"STARLINK-4715","OBJECT_ID":"2022-111AE","EPOCH":"2025-11-16T15:25:03.169056","MEAN_MOTION":15.08853185,"ECCENTRICITY":0.0001506,"INCLINATION":53.2178,"RA_OF_ASC_NODE":51.357,"ARG_OF_PERICENTER":97.9205,"MEAN_ANOMALY":262.1958,"EPHEMERIS_TYPE":0,"CLASSIFICATION_TYPE":"U","NORAD_CAT_ID":53801,"ELEMENT_SET_NO":999,"REV_AT_EPOCH":17675,"BSTAR":0.0002492,"MEAN_MOTION_DOT":3.682e-5,"MEAN_MOTION_DDOT":0},{"OBJECT_NAME":"STARLINK-4726","OBJECT_ID":"2022-111AF","EPOCH":"2025-11-16T15:40:58.152576","MEAN_MOTION":15.08843907,"ECCENTRICITY":0.000129,"INCLINATION":53.2162,"RA_OF_ASC_NODE":51.4239,"ARG_OF_PERICENTER":89.186,"MEAN_ANOMALY":270.928,"EPHEMERIS_TYPE":0,"CLASSIFICATION_TYPE":"U","NORAD_CAT_ID":53802,"ELEMENT_SET_NO":999,"REV_AT_EPOCH":17675,"BSTAR":0.00013638,"MEAN_MOTION_DOT":1.883e-5,"MEAN_MOTION_DDOT":0},{"OBJECT_NAME":"STARLINK-4727","OBJECT_ID":"2022-111AG","EPOCH":"2025-11-16T14:26:08.678112","MEAN_MOTION":15.08858532,"ECCENTRICITY":0.00014138,"INCLINATION":53.2184,"RA_OF_ASC_NODE":36.8386,"ARG_OF_PERICENTER":94.7815,"MEAN_ANOMALY":265.3339,"EPHEMERIS_TYPE":0,"CLASSIFICATION_TYPE":"U","NORAD_CAT_ID":53803,"ELEMENT_SET_NO":999,"REV_AT_EPOCH":17695,"BSTAR":0.00028845132,"MEAN_MOTION_DOT":4.308e-5,"MEAN_MOTION_DDOT":0},{"OBJECT_NAME":"STARLINK-4729","OBJECT_ID":"2022-111AH","EPOCH":"2025-11-16T10:43:35.182272","MEAN_MOTION":15.08826341,"ECCENTRICITY":0.00020715,"INCLINATION":53.2207,"RA_OF_ASC_NODE":47.2624,"ARG_OF_PERICENTER":91.7977,"MEAN_ANOMALY":268.3252,"EPHEMERIS_TYPE":0,"CLASSIFICATION_TYPE":"U","NORAD_CAT_ID":53804,"ELEMENT_SET_NO":999,"REV_AT_EPOCH":17679,"BSTAR":0.00038258414,"MEAN_MOTION_DOT":5.804e-5,"MEAN_MOTION_DDOT":0},{"OBJECT_NAME":"STARLINK-4763","OBJECT_ID":"2022-111AJ","EPOCH":"2025-11-16T14:38:07.503648","MEAN_MOTION":15.08858345,"ECCENTRICITY":0.00015856,"INCLINATION":53.2209,"RA_OF_ASC_NODE":36.8879,"ARG_OF_PERICENTER":63.8823,"MEAN_ANOMALY":296.2332,"EPHEMERIS_TYPE":0,"CLASSIFICATION_TYPE":"U","NORAD_CAT_ID":53805,"ELEMENT_SET_NO":999,"REV_AT_EPOCH":17695,"BSTAR":0.00035922775,"MEAN_MOTION_DOT":5.437e-5,"MEAN_MOTION_DDOT":0},{"OBJECT_NAME":"STARLINK-4768","OBJECT_ID":"2022-111AK","EPOCH":"2025-11-16T15:35:00.243168","MEAN_MOTION":15.08860731,"ECCENTRICITY":0.000123,"INCLINATION":53.2183,"RA_OF_ASC_NODE":36.421,"ARG_OF_PERICENTER":93.0992,"MEAN_ANOMALY":267.0141,"EPHEMERIS_TYPE":0,"CLASSIFICATION_TYPE":"U","NORAD_CAT_ID":53806,"ELEMENT_SET_NO":999,"REV_AT_EPOCH":17696,"BSTAR":0.00037874,"MEAN_MOTION_DOT":5.748e-5,"MEAN_MOTION_DDOT":0},{"OBJECT_NAME":"STARLINK-4738","OBJECT_ID":"2022-114B","EPOCH":"2025-11-16T19:39:27.573696","MEAN_MOTION":15.08823891,"ECCENTRICITY":0.0001152,"INCLINATION":53.2166,"RA_OF_ASC_NODE":90.6868,"ARG_OF_PERICENTER":91.3227,"MEAN_ANOMALY":268.7898,"EPHEMERIS_TYPE":0,"CLASSIFICATION_TYPE":"U","NORAD_CAT_ID":53819,"ELEMENT_SET_NO":999,"REV_AT_EPOCH":17579,"BSTAR":-5.5136e-5,"MEAN_MOTION_DOT":-1.165e-5,"MEAN_MOTION_DDOT":0}]
