STARLINK-4666           
1 53789U 22111S   25320.70770956  .00001007  00000+0  81348-4 0  9997
2 53789  53.2189  61.0372 0001183  98.2407 261.8719 15.08851774176637
STARLINK-4734           
1 53790U 22111T   25320.45749319  .00001620  00000+0  11984-3 0  9999
2 53790  53.2190  62.3215 0001102  68.7521 291.3589 15.08847958176600
STARLINK-4739           
1 53792U 22111V   25320.70138811  .00000723  00000+0  63497-4 0  9998
2 53792  53.2190  61.6903 0001329  96.5168 263.5975 15.08843965176621
STARLINK-4728           
1 53793U 22111W   25320.45012290  .00004048  00000+0  27213-3 0  9992
2 53793  53.2217  62.2735 0002163  98.3658 261.7580 15.08861349176597
STARLINK-4730           
1 53794U 22111X   25320.71972315 -.00000330  00000+0 -26528-5 0  9997
2 53794  53.2189  61.1084 0001050  96.7594 263.3517 15.08841221176636
STARLINK-4742           
1 53795U 22111Y   25320.50531083  .00002928  00000+0  20210-3 0  9991
2 53795  53.2180  61.9066 0002004 104.8086 255.3128 15.08815347176609
STARLINK-4723           
1 53797U 22111AA  25320.69296934  .00004902  00000+0  32568-3 0  9999
2 53797  53.2167  60.9451 0001227  96.8229 263.2903 15.08857954176629
STARLINK-4712           
1 53798U 22111AB  25320.49792963  .00003657  00000+0  24766-3 0  9998
2 53798  53.2182  61.8586 0001278  67.2047 292.9081 15.08854120176596
STARLINK-4710           
1 53799U 22111AC  25320.67282962  .00006511  00000+0  42650-3 0  9996
2 53799  53.2163  51.5395 0000991  94.6380 265.4725 15.08865446176756
STARLINK-4720           
1 53800U 22111AD  25320.66081851  .00002106  00000+0  15035-3 0  9995
2 53800  53.2179  51.4690 0001587 109.6080 250.5083 15.08852590176757
STARLINK-4715           
1 53801U 22111AE  25320.64239779  .00003682  00000+0  24920-3 0  9991
2 53801  53.2178  51.3570 0001506  97.9205 262.1958 15.08853185176753
STARLINK-4726           
1 53802U 22111AF  25320.65345084  .00001883  00000+0  13638-3 0  9995
2 53802  53.2162  51.4239 0001290  89.1860 270.9280 15.08843907176756
STARLINK-4727           
1 53803U 22111AG  25320.60148933  .00004308  00000+0  28845-3 0  9996
2 53803  53.2184  36.8386 0001413  94.7815 265.3339 15.08858532176955
STARLINK-4729           
1 53804U 22111AH  25320.44693498  .00005804  00000+0  38258-3 0  9991
2 53804  53.2207  47.2624 0002071  91.7977 268.3252 15.08826341176792
STARLINK-4763           
1 53805U 22111AJ  25320.60980907  .00005437  00000+0  35923-3 0  9992
2 53805  53.2209  36.8879 0001585  63.8823 296.2332 15.08858345176956
STARLINK-4768           
1 53806U 22111AK  25320.64930837  .00005748  00000+0  37874-3 0  9996
2 53806  53.2183  36.4210 0001230  93.0992 267.0141 15.08860731176969
STARLINK-4738           
1 53819U 22114B   25320.81906914 -.00001165  00000+0 -55136-4 0  9994
2 53819  53.2166  90.6868 0001152  91.3227 268.7898 15.08823891175793
